GLOBALSTAR M023         
1 25621U 99004A   24312.62529685 -.00000040  00000+0  35759-3 0  9999
2 25621  52.0131   8.0963 0009864 359.8913 165.5409 12.62481708187837
GLOBALSTAR M040         
1 25622U 99004B   24312.59304958 -.00000027  00000+0  43194-3 0  9997
2 25622  51.9943  12.0170 0000468 240.9693 284.2496 12.61989499187270
GLOBALSTAR M036         
1 25623U 99004C   24312.94459081 -.00000049  00000+0  48678-3 0  9991
2 25623  51.9948 103.4584 0010508 353.0714 177.1326 11.86580196152716
GLOBALSTAR M022         
1 25649U 99012A   24312.98826924 -.00000097  00000+0 -12381-3 0  9992
2 25649  52.0015 172.2188 0003415  87.2986  59.7735 12.02490862149849
GLOBALSTAR M046         
1 25651U 99012C   24312.95661566 -.00000167  00000+0 -85959-3 0  9990
2 25651  52.0019 130.5126 0002745 146.8917  19.8837 12.09402074157244
GLOBALSTAR M037         
1 25652U 99012D   24312.90618840 -.00000058  00000+0  25410-3 0  9997
2 25652  51.9972 137.9384 0002918  70.0800  76.5654 12.62424646183377
